MEAN_MOTION;ECCENTRICITY;INCLINATION;RA_OF_ASC_NODE;ARG_OF_PERICENTER;MEAN_ANOMALY;BSTAR;MEAN_MOTION_DOT;MEAN_MOTION_DDOT;TYPE
12.62264976;6.99E-5;51.9855;164.2679;139.8415;19.2124;-5.2133E-6;-1.05E-6;0;Globalstar
12.62264961;6.71E-5;51.9854;160.8911;141.4655;18.5743;3.9937E-8;-1.04E-6;0;Globalstar
12.62264957;6.52E-5;51.9854;158.004;142.9795;7.1459;-7.6482E-6;-1.05E-6;0;Globalstar
12.62264958;6.36E-5;51.9854;155.8891;144.3509;283.0523;-1.7165E-6;-1.04E-6;0;Globalstar
12.62264961;6.31E-5;51.9854;155.3518;144.491;5.1018;7.1869E-7;-1.04E-6;0;Globalstar
12.62264972;6.08E-5;51.9854;152.7522;146.1226;284.2958;8.6511E-7;-1.04E-6;0;Globalstar
12.62264984;5.82E-5;51.9853;149.609;147.8446;294.9591;8.8276E-6;-1.02E-6;0;Globalstar
12.62264955;5.57E-5;51.9848;146.4681;148.8;303.1134;0.00011007;-8.4E-7;0;Globalstar
12.62264975;5.4E-5;51.9847;143.5649;149.8786;316.1646;0.00012767;-8.1E-7;0;Globalstar
12.62264995;5.13E-5;51.9847;140.6742;151.89;309.5242;0.00011032;-8.4E-7;0;Globalstar
12.62265024;4.86E-5;51.9847;137.5358;153.7935;312.6729;8.4321E-5;-8.9E-7;0;Globalstar
12.62265028;4.75E-5;51.9846;137.0298;154.0863;347.8355;7.6687E-5;-9.0E-7;0;Globalstar
12.62265045;4.56E-5;51.9846;134.3738;155.8589;351.174;3.7496E-5;-9.7E-7;0;Globalstar
12.6226505;4.45E-5;51.9846;133.889;156.204;354.548;2.948E-5;-9.8E-7;0;Globalstar
12.62265057;4.21E-5;51.9845;131.2601;157.9078;317.4112;-1.1869E-7;-1.04E-6;0;Globalstar
12.62265065;3.96E-5;51.9844;128.3809;160.3149;293.1233;-2.315E-5;-1.08E-6;0;Globalstar
12.62265051;3.75E-5;51.9843;126.5021;161.6845;216.2956;-4.0754E-5;-1.11E-6;0;Globalstar
12.6226506;3.65E-5;51.9843;125.2321;161.7127;312.243;-2.5942E-5;-1.08E-6;0;Globalstar
12.62265072;3.37E-5;51.9842;122.3598;163.2149;278.2158;-3.7113E-6;-1.04E-6;0;Globalstar
12.62265079;3.07E-5;51.9841;119.2023;165.4073;309.3839;3.2281E-5;-9.8E-7;0;Globalstar
12.62265087;2.99E-5;51.9841;118.6886;165.8938;355.8151;3.5178E-5;-9.7E-7;0;Globalstar
12.62265076;2.8E-5;51.9841;116.0611;167.1457;316.7613;5.5698E-5;-9.4E-7;0;Globalstar
12.62265079;2.76E-5;51.9841;115.7994;167.4021;347.1875;5.4701E-5;-9.4E-7;0;Globalstar
12.62265088;2.49E-5;51.9841;113.1732;168.9307;305.9298;8.1414E-5;-8.9E-7;0;Globalstar
12.62265078;2.34E-5;51.9841;111.0307;169.7801;263.3087;5.9851E-5;-9.3E-7;0;Globalstar
12.62265117;2.21E-5;51.9842;110.0244;169.2483;326.1029;9.5364E-5;-8.7E-7;0;Globalstar
12.62265158;1.94E-5;51.9842;107.1438;169.9565;305.3772;0.00010107;-8.6E-7;0;Globalstar
12.6226514;1.77E-5;51.9843;105.0015;170.5921;262.776;4.7274E-5;-9.5E-7;0;Globalstar
12.62265187;1.61E-5;51.9843;103.9951;169.8691;325.9244;7.6082E-5;-9.0E-7;0;Globalstar
12.62265219;1.4E-5;51.9843;101.0816;170.8309;354.1096;5.0656E-5;-9.5E-7;0;Globalstar
12.62265224;1.23E-5;51.9844;99.4921;171.8186;205.8009;2.6156E-5;-9.9E-7;0;Globalstar
12.62265232;1.04E-5;51.9844;97.9445;168.4347;359.4595;1.1062E-5;-1.02E-6;0;Globalstar
12.62265233;9.8E-6;51.9844;97.7128;167.6765;346.1071;2.9972E-6;-1.03E-6;0;Globalstar
12.62265235;6.0E-6;51.9846;93.4632;161.4178;216.1684;-3.892E-5;-1.11E-6;0;Globalstar
12.62265219;5.6E-6;51.9846;92.6847;157.3752;302.2268;-5.9202E-5;-1.14E-6;0;Globalstar
12.62265228;4.4E-6;51.9846;91.6835;147.4343;6.778;-5.5418E-5;-1.14E-6;0;Globalstar
12.62265232;3.2E-6;51.9847;88.7906;109.4627;43.1019;-4.868E-5;-1.12E-6;0;Globalstar
12.62265234;4.1E-6;51.9849;85.8855;61.0311;108.2324;-2.7107E-5;-1.09E-6;0;Globalstar
12.62265233;5.5E-6;51.985;83.7756;46.9015;31.944;-2.3601E-5;-1.08E-6;0;Globalstar
12.62265231;6.7E-6;51.9851;82.7616;42.9254;109.5555;-1.1547E-5;-1.06E-6;0;Globalstar
12.6226522;8.1E-6;51.9852;80.6382;37.7715;44.4023;-4.579E-6;-1.05E-6;0;Globalstar
12.6226523;9.5E-6;51.9853;79.6243;35.9209;119.847;6.1439E-6;-1.03E-6;0;Globalstar
12.62265237;1.22E-5;51.9856;76.7325;33.3307;119.4541;2.2856E-5;-1.0E-6;0;Globalstar
12.62265236;1.44E-5;51.9858;73.5947;31.0311;125.9798;1.2824E-5;-1.01E-6;0;Globalstar
12.62265258;1.6E-5;51.9861;70.7046;29.3501;122.1544;1.1436E-5;-1.02E-6;0;Globalstar
12.62265239;2.03E-5;51.9864;66.2011;30.6365;4.0136;-3.6466E-5;-1.1E-6;0;Globalstar
12.62265238;2.33E-5;51.9866;63.043;32.6597;36.6713;-5.995E-5;-1.15E-6;0;Globalstar
12.62265244;2.49E-5;51.9867;61.5377;33.0614;123.6067;-5.8574E-5;-1.14E-6;0;Globalstar
12.62265216;2.89E-5;51.987;57.0452;35.3803;348.0741;-7.6971E-5;-1.18E-6;0;Globalstar
12.62265211;2.92E-5;51.987;56.2685;35.2886;67.596;-7.1817E-5;-1.17E-6;0;Globalstar
12.62265218;3.09E-5;51.9871;54.1439;36.0719;358.7159;-6.0576E-5;-1.15E-6;0;Globalstar
12.62265238;3.1E-5;51.9872;53.1091;35.7125;103.9418;-3.6537E-5;-1.1E-6;0;Globalstar
12.62265225;3.25E-5;51.9873;51.0165;36.2078;347.481;-3.4005E-5;-1.1E-6;0;Globalstar
12.62265231;3.34E-5;51.9874;49.9686;35.7782;112.3928;-1.5787E-5;-1.07E-6;0;Globalstar
12.62265233;3.38E-5;51.9874;49.4804;35.3736;121.6367;-1.7819E-5;-1.07E-6;0;Globalstar
12.62265235;3.59E-5;51.9876;46.5918;36.5805;112.893;6.2372E-6;-1.03E-6;0;Globalstar
12.62265224;3.74E-5;51.9878;44.7121;38.0001;37.6815;4.3764E-6;-1.03E-6;0;Globalstar
12.62265222;3.86E-5;51.9878;43.4515;38.282;119.4473;9.8234E-6;-1.02E-6;0;Globalstar
12.62265221;3.96E-5;51.9879;41.8159;39.2087;40.2845;6.7927E-6;-1.03E-6;0;Globalstar
12.6226525;4.04E-5;51.9879;40.5624;39.8076;111.1657;3.6305E-5;-9.7E-7;0;Globalstar
12.62265237;4.19E-5;51.988;38.6836;41.5;34.5657;1.6775E-5;-1.01E-6;0;Globalstar
12.62265228;4.26E-5;51.9881;37.9124;41.6955;105.668;1.8028E-5;-1.01E-6;0;Globalstar
12.62265262;4.39E-5;51.9882;35.8224;42.7718;344.8877;1.9051E-5;-1.0E-6;0;Globalstar
12.62265243;4.46E-5;51.9882;34.7659;43.3466;121.6863;9.929E-6;-1.02E-6;0;Globalstar
12.62265242;4.62E-5;51.9883;32.655;44.5475;32.0065;-8.9367E-6;-1.05E-6;0;Globalstar
12.62265226;4.72E-5;51.9883;31.394;44.6066;114.7073;-2.4373E-5;-1.08E-6;0;Globalstar
12.62265218;4.75E-5;51.9885;29.5182;45.0377;34.4983;-1.2402E-5;-1.06E-6;0;Globalstar
12.62265198;5.02E-5;51.9883;26.6266;47.6888;29.0507;-5.1969E-5;-1.13E-6;0;Globalstar
12.6226524;5.08E-5;51.9885;23.4896;47.8892;31.9805;1.6886E-6;-1.03E-6;0;Globalstar
12.62265198;5.26E-5;51.9882;22.7131;49.3376;110.1147;-2.3492E-5;-1.08E-6;0;Globalstar
12.62265199;5.24E-5;51.9885;20.5979;49.8791;27.1984;-1.535E-5;-1.07E-6;0;Globalstar
12.62265188;5.36E-5;51.9885;19.5908;50.2349;90.4623;-2.5076E-5;-1.08E-6;0;Globalstar
12.62265175;5.46E-5;51.9885;17.4614;51.4081;28.2986;-3.4486E-5;-1.1E-6;0;Globalstar
12.62265187;5.55E-5;51.9885;16.6811;52.2196;112.5415;-1.6217E-5;-1.07E-6;0;Globalstar
12.62265173;5.67E-5;51.9884;14.5693;53.569;23.9065;-2.1572E-5;-1.08E-6;0;Globalstar
12.62265181;5.84E-5;51.9884;12.1989;54.0006;322.4242;-1.4994E-5;-1.06E-6;0;Globalstar
12.6226519;5.83E-5;51.9884;11.4332;54.4327;25.1685;-9.7327E-6;-1.06E-6;0;Globalstar
12.62265143;5.96E-5;51.9883;8.3059;56.0314;12.2852;-3.1535E-5;-1.09E-6;0;Globalstar
12.62265161;6.02E-5;51.9883;7.5336;56.6124;84.7299;-1.1188E-5;-1.06E-6;0;Globalstar
12.62265154;6.08E-5;51.9882;5.1489;57.8533;43.642;-4.7714E-6;-1.05E-6;0;Globalstar
12.62265166;6.11E-5;51.9882;4.393;58.25;91.7102;7.2886E-6;-1.02E-6;0;Globalstar
12.62265163;6.18E-5;51.9881;2.2767;59.303;10.1101;1.005E-5;-1.02E-6;0;Globalstar
12.6226519;6.29E-5;51.988;359.3905;60.5626;357.6149;2.2435E-5;-1.0E-6;0;Globalstar
12.62265195;6.49E-5;51.9878;358.3647;61.4418;88.7857;2.6879E-5;-9.9E-7;0;Globalstar
12.62265197;6.63E-5;51.9877;355.4765;63.3359;78.6578;2.4976E-5;-9.9E-7;0;Globalstar
12.62265203;6.67E-5;51.9875;353.0919;64.9484;36.9555;2.889E-5;-9.9E-7;0;Globalstar
12.62265201;6.72E-5;51.9875;352.3349;64.9046;87.1514;2.419E-5;-9.9E-7;0;Globalstar
12.62265197;6.81E-5;51.9874;349.9533;65.9782;41.4516;3.1342E-5;-9.8E-7;0;Globalstar
12.62265209;6.84E-5;51.9874;349.4477;66.4475;75.8707;3.6847E-5;-9.7E-7;0;Globalstar
12.62265211;6.89E-5;51.9873;347.0639;67.5931;33.3112;4.379E-5;-9.6E-7;0;Globalstar
12.62265231;6.79E-5;51.9875;343.924;69.0011;38.8176;2.3693E-5;-1.0E-6;0;Globalstar
12.62265237;7.01E-5;51.9871;343.4186;69.0779;73.558;7.3423E-5;-9.1E-7;0;Globalstar
12.62265245;7.04E-5;51.987;341.0535;70.3948;2.9191;7.7409E-5;-9.0E-7;0;Globalstar
12.62265258;7.07E-5;51.987;340.277;70.8043;81.808;8.3907E-5;-8.9E-7;0;Globalstar
12.62265269;7.12E-5;51.987;337.9101;71.9631;14.0146;8.7472E-5;-8.8E-7;0;Globalstar
12.62265269;7.16E-5;51.9869;335.5291;72.8362;327.5587;5.6754E-5;-9.4E-7;0;Globalstar
12.6226527;7.18E-5;51.9869;335.006;73.1915;27.9596;6.3722E-5;-9.2E-7;0;Globalstar
12.62265305;7.2E-5;51.9868;332.1322;75.0759;356.3754;5.3914E-5;-9.4E-7;0;Globalstar
12.62265317;7.22E-5;51.9868;331.881;75.2027;11.2951;6.3897E-5;-9.2E-7;0;Globalstar
12.62265329;7.26E-5;51.9867;328.9775;76.406;24.4379;3.7607E-5;-9.7E-7;0;Globalstar
12.62265352;7.28E-5;51.9867;325.851;78.2192;10.0564;2.6325E-5;-9.9E-7;0;Globalstar
12.62265347;7.29E-5;51.9866;323.7263;78.7566;301.3371;-4.5494E-6;-1.05E-6;0;Globalstar
12.62265342;7.31E-5;51.9866;322.9485;79.1583;22.1456;-1.2517E-6;-1.04E-6;0;Globalstar
12.62265386;7.32E-5;51.9866;322.19;79.5888;73.9582;2.442E-5;-9.9E-7;0;Globalstar
12.62265379;7.39E-5;51.9865;319.5624;79.8613;36.2655;2.6156E-5;-9.9E-7;0;Globalstar
12.62265371;7.39E-5;51.9865;317.9374;80.1499;301.8527;2.2984E-5;-1.0E-6;0;Globalstar
12.62265375;7.38E-5;51.9865;317.697;80.5851;300.2611;1.7016E-5;-1.01E-6;0;Globalstar
12.6226538;7.4E-5;51.9865;316.6818;81.1042;15.3174;3.3027E-5;-9.8E-7;0;Globalstar
12.62265379;7.39E-5;51.9864;314.0445;82.2757;351.1257;4.2267E-5;-9.6E-7;0;Globalstar
12.62265398;7.42E-5;51.9864;313.5038;82.2255;78.2598;6.3096E-5;-9.2E-7;0;Globalstar
12.62265413;7.43E-5;51.9864;310.6525;83.2511;13.7978;8.3473E-5;-8.9E-7;0;Globalstar
12.62265435;7.35E-5;51.9864;307.5041;85.0537;31.9524;8.8564E-5;-8.8E-7;0;Globalstar
12.62265423;7.34E-5;51.9864;307.2393;85.1233;67.2732;7.4507E-5;-9.0E-7;0;Globalstar
12.62265446;7.33E-5;51.9864;304.6235;86.1601;11.2405;8.5371E-5;-8.8E-7;0;Globalstar
12.62265454;7.32E-5;51.9864;304.102;85.9584;69.8208;8.5146E-5;-8.9E-7;0;Globalstar
12.62265476;7.24E-5;51.9864;301.4751;87.6112;29.8214;7.7607E-5;-9.0E-7;0;Globalstar
